GLOBALSTAR M067 [+]     
1 32263U 07048A   24102.58018586 -.00000079  00000+0  13947-3 0  9998
2 32263  51.9717 218.8185 0001521 134.1729 239.0320 12.40641953755918
GLOBALSTAR M070 [+]     
1 32264U 07048B   24102.91684839 -.00000066  00000+0  21181-3 0  9991
2 32264  51.9778   2.2967 0000418  93.0016 348.4293 12.62289510759206
GLOBALSTAR M079 [+]     
1 37188U 10054A   24102.94817494 -.00000080  00000+0  13534-3 0  9999
2 37188  52.0068  12.5458 0000881  75.1835  19.3264 12.62268105621996
GLOBALSTAR M074 [+]     
1 37189U 10054B   24102.89119370 -.00000077  00000+0  15184-3 0  9991
2 37189  52.0044  12.1098 0000609  77.2281 357.6168 12.62266720622592
GLOBALSTAR M076 [+]     
1 37190U 10054C   24102.91823681 -.00000080  00000+0  13329-3 0  9996
2 37190  52.0058  12.1582 0000988 104.7811 333.6128 12.62276387622671
GLOBALSTAR M077 [+]     
1 37191U 10054D   24102.89082124 -.00000078  00000+0  14632-3 0  9998
2 37191  52.0087 328.9772 0000734  94.6879 278.2029 12.62271379622684
